KUIPER-00408            
1 68924U 26098F   26185.70413185  .00041498  00000+0  15570-2 0  9990
2 68924  51.8792 345.8355 0014154 221.4260 138.5650 15.26728787 10000
KUIPER-00409            
1 68925U 26098G   26186.25005787 -.01101978  00000+0 -50604-1 0  9996
2 68925  51.8821 341.6681 0005843 238.0559 278.3071 15.22984102  5421
KUIPER-00410            
1 68926U 26098H   26184.84877844  .00013610  00000+0  51943-3 0  9992
2 68926  51.8794 349.8525 0012689 215.7350 144.2784 15.26875187  9876
KUIPER-00412            
1 68927U 26098J   26185.80522798  .00049459  00000+0  13264-2 0  9998
2 68927  51.8790 342.1161 0003073 290.6072  69.4585 15.37481596 10064
KUIPER-00413            
1 68928U 26098K   26185.44755788  .00022495  00000+0  10333-2 0  9991
2 68928  51.8792 347.7955 0023071 224.8739 135.0376 15.20070997  9953
KUIPER-00414            
1 68929U 26098L   26185.88356374  .00002073  00000+0  30082-3 0  9992
2 68929  51.8978 352.5078 0001242 211.8722 148.2165 14.79934283  9923
KUIPER-00415            
1 68930U 26098M   26185.71856742  .00042338  00000+0  14255-2 0  9991
2 68930  51.8810 344.4869 0009578 204.8400 155.2124 15.30314375 10021
KUIPER-00416            
1 68931U 26098N   26185.86237164  .00045019  00000+0  12081-2 0  9993
2 68931  51.8742 341.7320 0001215 280.1305  79.9545 15.37506582 10073
KUIPER-00420            
1 68932U 26098P   26185.84044822  .00051628  00000+0  14291-2 0  9997
2 68932  51.8799 342.3383 0003851 264.4959  95.5589 15.36475901 10060
KUIPER-00421            
1 68933U 26098Q   26185.82153113  .00074994  00000+0  24785-2 0  9990
2 68933  51.8797 343.6778 0007572 191.5368 168.5443 15.30669371 10047
KUIPER-00425            
1 68934U 26098R   26185.70831916  .00033428  00000+0  12723-2 0  9998
2 68934  51.8794 345.8495 0015812 213.9192 146.0780 15.26335824 10004
KUIPER-00430            
1 68935U 26098S   26186.25005787 -.00498100  00000+0 -25640-1 0  9994
2 68935  51.8861 343.4160 0019758 217.8921 199.9558 15.18054481  5887
KUIPER-00431            
1 68936U 26098T   26186.25005787 -.01607971  00000+0 -12232+0 0  9995
2 68936  51.8879 344.4219 0015120 207.2872  45.3265 15.04721152  2843
KUIPER-00432            
1 68937U 26098U   26185.83575253  .00048146  00000+0  17252-2 0  9999
2 68937  51.8787 344.4807 0011706 214.5095 145.5129 15.28205483 10031
KUIPER-00434            
1 68938U 26098V   26186.25005787 -.01240449  00000+0 -53654-1 0  9995
2 68938  51.8792 341.5773 0005040 192.9995  37.9683 15.24852818  5736
KUIPER-00436            
1 68939U 26098W   26186.25005787 -.00993825  00000+0 -42391-1 0  9994
2 68939  51.8774 342.0581 0009050 225.8804 123.0154 15.25100502  3533
