{"fetched_at":"2026-07-05T17:36:07.652Z","source":"https://celestrak.org/NORAD/elements/gp.php?GROUP=kuiper&FORMAT=JSON","constellation":"kuiper","records":[{"OBJECT_NAME":"KUIPER-00408","OBJECT_ID":"2026-098F","EPOCH":"2026-07-04T16:53:56.991840","CLASSIFICATION_TYPE":"U","MEAN_MOTION":15.26728787,"ECCENTRICITY":0.00141546,"INCLINATION":51.8792,"RA_OF_ASC_NODE":345.8355,"ARG_OF_PERICENTER":221.426,"MEAN_ANOMALY":138.565,"EPHEMERIS_TYPE":0,"NORAD_CAT_ID":68924,"ELEMENT_SET_NO":999,"REV_AT_EPOCH":1000,"BSTAR":0.001557007,"MEAN_MOTION_DOT":0.00041498,"MEAN_MOTION_DDOT":0},{"OBJECT_NAME":"KUIPER-00409","OBJECT_ID":"2026-098G","EPOCH":"2026-07-05T06:00:04.999968","CLASSIFICATION_TYPE":"U","MEAN_MOTION":15.22984102,"ECCENTRICITY":0.00058438,"INCLINATION":51.8821,"RA_OF_ASC_NODE":341.6681,"ARG_OF_PERICENTER":238.0559,"MEAN_ANOMALY":278.3071,"EPHEMERIS_TYPE":0,"NORAD_CAT_ID":68925,"ELEMENT_SET_NO":999,"REV_AT_EPOCH":542,"BSTAR":-0.050603564,"MEAN_MOTION_DOT":-0.01101978,"MEAN_MOTION_DDOT":0},{"OBJECT_NAME":"KUIPER-00410","OBJECT_ID":"2026-098H","EPOCH":"2026-07-03T20:22:14.457216","CLASSIFICATION_TYPE":"U","MEAN_MOTION":15.26875187,"ECCENTRICITY":0.00126891,"INCLINATION":51.8794,"RA_OF_ASC_NODE":349.8525,"ARG_OF_PERICENTER":215.735,"MEAN_ANOMALY":144.2784,"EPHEMERIS_TYPE":0,"NORAD_CAT_ID":68926,"ELEMENT_SET_NO":999,"REV_AT_EPOCH":987,"BSTAR":0.00051943269,"MEAN_MOTION_DOT":0.0001361,"MEAN_MOTION_DDOT":0},{"OBJECT_NAME":"KUIPER-00412","OBJECT_ID":"2026-098J","EPOCH":"2026-07-04T19:19:31.697472","CLASSIFICATION_TYPE":"U","MEAN_MOTION":15.37481596,"ECCENTRICITY":0.00030735,"INCLINATION":51.879,"RA_OF_ASC_NODE":342.1161,"ARG_OF_PERICENTER":290.6072,"MEAN_ANOMALY":69.4585,"EPHEMERIS_TYPE":0,"NORAD_CAT_ID":68927,"ELEMENT_SET_NO":999,"REV_AT_EPOCH":1006,"BSTAR":0.0013263532,"MEAN_MOTION_DOT":0.00049459,"MEAN_MOTION_DDOT":0},{"OBJECT_NAME":"KUIPER-00413","OBJECT_ID":"2026-098K","EPOCH":"2026-07-04T10:44:29.000832","CLASSIFICATION_TYPE":"U","MEAN_MOTION":15.20070997,"ECCENTRICITY":0.0023071,"INCLINATION":51.8792,"RA_OF_ASC_NODE":347.7955,"ARG_OF_PERICENTER":224.8739,"MEAN_ANOMALY":135.0376,"EPHEMERIS_TYPE":0,"NORAD_CAT_ID":68928,"ELEMENT_SET_NO":999,"REV_AT_EPOCH":995,"BSTAR":0.0010332752,"MEAN_MOTION_DOT":0.00022495,"MEAN_MOTION_DDOT":0},{"OBJECT_NAME":"KUIPER-00414","OBJECT_ID":"2026-098L","EPOCH":"2026-07-04T21:12:19.907136","CLASSIFICATION_TYPE":"U","MEAN_MOTION":14.79934283,"ECCENTRICITY":0.0001242,"INCLINATION":51.8978,"RA_OF_ASC_NODE":352.5078,"ARG_OF_PERICENTER":211.8722,"MEAN_ANOMALY":148.2165,"EPHEMERIS_TYPE":0,"NORAD_CAT_ID":68929,"ELEMENT_SET_NO":999,"REV_AT_EPOCH":992,"BSTAR":0.00030082047,"MEAN_MOTION_DOT":0.00002073,"MEAN_MOTION_DDOT":0},{"OBJECT_NAME":"KUIPER-00415","OBJECT_ID":"2026-098M","EPOCH":"2026-07-04T17:14:44.225088","CLASSIFICATION_TYPE":"U","MEAN_MOTION":15.30314375,"ECCENTRICITY":0.00095782,"INCLINATION":51.881,"RA_OF_ASC_NODE":344.4869,"ARG_OF_PERICENTER":204.84,"MEAN_ANOMALY":155.2124,"EPHEMERIS_TYPE":0,"NORAD_CAT_ID":68930,"ELEMENT_SET_NO":999,"REV_AT_EPOCH":1002,"BSTAR":0.0014254747,"MEAN_MOTION_DOT":0.00042338,"MEAN_MOTION_DDOT":0},{"OBJECT_NAME":"KUIPER-00416","OBJECT_ID":"2026-098N","EPOCH":"2026-07-04T20:41:48.909696","CLASSIFICATION_TYPE":"U","MEAN_MOTION":15.37506582,"ECCENTRICITY":0.00012151,"INCLINATION":51.8742,"RA_OF_ASC_NODE":341.732,"ARG_OF_PERICENTER":280.1305,"MEAN_ANOMALY":79.9545,"EPHEMERIS_TYPE":0,"NORAD_CAT_ID":68931,"ELEMENT_SET_NO":999,"REV_AT_EPOCH":1007,"BSTAR":0.0012080658,"MEAN_MOTION_DOT":0.00045019,"MEAN_MOTION_DDOT":0},{"OBJECT_NAME":"KUIPER-00420","OBJECT_ID":"2026-098P","EPOCH":"2026-07-04T20:10:14.726208","CLASSIFICATION_TYPE":"U","MEAN_MOTION":15.36475901,"ECCENTRICITY":0.00038511,"INCLINATION":51.8799,"RA_OF_ASC_NODE":342.3383,"ARG_OF_PERICENTER":264.4959,"MEAN_ANOMALY":95.5589,"EPHEMERIS_TYPE":0,"NORAD_CAT_ID":68932,"ELEMENT_SET_NO":999,"REV_AT_EPOCH":1006,"BSTAR":0.0014291424,"MEAN_MOTION_DOT":0.00051628,"MEAN_MOTION_DDOT":0},{"OBJECT_NAME":"KUIPER-00421","OBJECT_ID":"2026-098Q","EPOCH":"2026-07-04T19:43:00.289632","CLASSIFICATION_TYPE":"U","MEAN_MOTION":15.30669371,"ECCENTRICITY":0.00075723,"INCLINATION":51.8797,"RA_OF_ASC_NODE":343.6778,"ARG_OF_PERICENTER":191.5368,"MEAN_ANOMALY":168.5443,"EPHEMERIS_TYPE":0,"NORAD_CAT_ID":68933,"ELEMENT_SET_NO":999,"REV_AT_EPOCH":1004,"BSTAR":0.0024784955,"MEAN_MOTION_DOT":0.00074994,"MEAN_MOTION_DDOT":0},{"OBJECT_NAME":"KUIPER-00425","OBJECT_ID":"2026-098R","EPOCH":"2026-07-04T16:59:58.775424","CLASSIFICATION_TYPE":"U","MEAN_MOTION":15.26335824,"ECCENTRICITY":0.00158127,"INCLINATION":51.8794,"RA_OF_ASC_NODE":345.8495,"ARG_OF_PERICENTER":213.9192,"MEAN_ANOMALY":146.078,"EPHEMERIS_TYPE":0,"NORAD_CAT_ID":68934,"ELEMENT_SET_NO":999,"REV_AT_EPOCH":1000,"BSTAR":0.0012722575,"MEAN_MOTION_DOT":0.00033428,"MEAN_MOTION_DDOT":0},{"OBJECT_NAME":"KUIPER-00430","OBJECT_ID":"2026-098S","EPOCH":"2026-07-05T06:00:04.999968","CLASSIFICATION_TYPE":"U","MEAN_MOTION":15.18054481,"ECCENTRICITY":0.00197581,"INCLINATION":51.8861,"RA_OF_ASC_NODE":343.416,"ARG_OF_PERICENTER":217.8921,"MEAN_ANOMALY":199.9558,"EPHEMERIS_TYPE":0,"NORAD_CAT_ID":68935,"ELEMENT_SET_NO":999,"REV_AT_EPOCH":588,"BSTAR":-0.025639719,"MEAN_MOTION_DOT":-0.004981,"MEAN_MOTION_DDOT":0},{"OBJECT_NAME":"KUIPER-00431","OBJECT_ID":"2026-098T","EPOCH":"2026-07-05T06:00:04.999968","CLASSIFICATION_TYPE":"U","MEAN_MOTION":15.04721152,"ECCENTRICITY":0.00151206,"INCLINATION":51.8879,"RA_OF_ASC_NODE":344.4219,"ARG_OF_PERICENTER":207.2872,"MEAN_ANOMALY":45.3265,"EPHEMERIS_TYPE":0,"NORAD_CAT_ID":68936,"ELEMENT_SET_NO":999,"REV_AT_EPOCH":284,"BSTAR":-0.12231595,"MEAN_MOTION_DOT":-0.01607971,"MEAN_MOTION_DDOT":0},{"OBJECT_NAME":"KUIPER-00432","OBJECT_ID":"2026-098U","EPOCH":"2026-07-04T20:03:29.018592","CLASSIFICATION_TYPE":"U","MEAN_MOTION":15.28205483,"ECCENTRICITY":0.00117063,"INCLINATION":51.8787,"RA_OF_ASC_NODE":344.4807,"ARG_OF_PERICENTER":214.5095,"MEAN_ANOMALY":145.5129,"EPHEMERIS_TYPE":0,"NORAD_CAT_ID":68937,"ELEMENT_SET_NO":999,"REV_AT_EPOCH":1003,"BSTAR":0.0017251895,"MEAN_MOTION_DOT":0.00048146,"MEAN_MOTION_DDOT":0},{"OBJECT_NAME":"KUIPER-00434","OBJECT_ID":"2026-098V","EPOCH":"2026-07-05T06:00:04.999968","CLASSIFICATION_TYPE":"U","MEAN_MOTION":15.24852818,"ECCENTRICITY":0.00050404,"INCLINATION":51.8792,"RA_OF_ASC_NODE":341.5773,"ARG_OF_PERICENTER":192.9995,"MEAN_ANOMALY":37.9683,"EPHEMERIS_TYPE":0,"NORAD_CAT_ID":68938,"ELEMENT_SET_NO":999,"REV_AT_EPOCH":573,"BSTAR":-0.053654307,"MEAN_MOTION_DOT":-0.01240449,"MEAN_MOTION_DDOT":0},{"OBJECT_NAME":"KUIPER-00436","OBJECT_ID":"2026-098W","EPOCH":"2026-07-05T06:00:04.999968","CLASSIFICATION_TYPE":"U","MEAN_MOTION":15.25100502,"ECCENTRICITY":0.00090504,"INCLINATION":51.8774,"RA_OF_ASC_NODE":342.0581,"ARG_OF_PERICENTER":225.8804,"MEAN_ANOMALY":123.0154,"EPHEMERIS_TYPE":0,"NORAD_CAT_ID":68939,"ELEMENT_SET_NO":999,"REV_AT_EPOCH":353,"BSTAR":-0.042391462,"MEAN_MOTION_DOT":-0.00993825,"MEAN_MOTION_DDOT":0}]}
